[{"OBJECT_NAME":"CHUANGXIN 16A (CX-16A)","OBJECT_ID":"2022-102A","EPOCH":"2026-03-09T19:59:28.991616","MEAN_MOTION":15.05552649,"ECCENTRICITY":0.0005063,"INCLINATION":28.9941,"RA_OF_ASC_NODE":256.1289,"ARG_OF_PERICENTER":43.7318,"MEAN_ANOMALY":316.3682,"EPHEMERIS_TYPE":0,"CLASSIFICATION_TYPE":"U","NORAD_CAT_ID":53586,"ELEMENT_SET_NO":999,"REV_AT_EPOCH":19453,"BSTAR":0.00020134,"MEAN_MOTION_DOT":3.128e-5,"MEAN_MOTION_DDOT":0},{"OBJECT_NAME":"STARLINK-34723","OBJECT_ID":"2025-152A","EPOCH":"2026-03-09T13:25:56.392608","MEAN_MOTION":15.05672971,"ECCENTRICITY":0.00018714,"INCLINATION":97.6019,"RA_OF_ASC_NODE":285.3137,"ARG_OF_PERICENTER":83.883,"MEAN_ANOMALY":276.261,"EPHEMERIS_TYPE":0,"CLASSIFICATION_TYPE":"U","NORAD_CAT_ID":64842,"ELEMENT_SET_NO":999,"REV_AT_EPOCH":3539,"BSTAR":0.0005690792,"MEAN_MOTION_DOT":8.165e-5,"MEAN_MOTION_DDOT":0}]
